1 26605U 00071A   18032.53007757  .00000040  00000-0  00000+0 0  9998
2 26605  55.0813 215.7358 0095159 248.3981  54.5553  2.00556286126211
1 26605U 00071A   18032.76975348  .00000038  00000-0  00000-0 0  9991
2 26605  55.0812 215.7263 0095167 248.3977 227.6081  2.00556279126221
1 26605U 00071A   18033.42390571  .00000036  00000-0  00000+0 0  9991
2 26605  55.0812 215.7003 0095180 248.3962 339.9248  2.00556270126236
1 26605U 00071A   18033.93110211  .00000036  00000-0  00000-0 0  9999
2 26605  55.0811 215.6801 0095192 248.3942 346.1360  2.00556262126248
1 26605U 00071A   18034.54522758  .00000038  00000-0  00000-0 0  9992
2 26605  55.0811 215.6558 0095206 248.3919  69.5531  2.00556256126257
1 26605U 00071A   18034.94474582  .00000041  00000-0  00000-0 0  9991
2 26605  55.0811 215.6399 0095217 248.3906 358.0171  2.00556251126260
1 26605U 00071A   18035.54271885  .00000045  00000-0  00000+0 0  9992
2 26605  55.0810 215.6161 0095233 248.3881  69.7719  2.00556243126272
1 26605U 00071A   18035.88662968  .00000048  00000-0  00000-0 0  9999
2 26605  55.0810 215.6025 0095244 248.3860 318.0866  2.00556241126282
1 26605U 00071A   18036.24811699  .00000051  00000-0  00000+0 0  9990
2 26605  55.0810 215.5881 0095253 248.3842 219.0919  2.00556243126282
1 26605U 00071A   18036.90024552  .00000058  00000-0  00000-0 0  9995
2 26605  55.0809 215.5623 0095274 248.3822 329.9476  2.00556234126307
1 26605U 00071A   18037.51328022  .00000063  00000-0  00000+0 0  9997
2 26605  55.0809 215.5379 0095294 248.3805  52.5764  2.00556229126312
1 26605U 00071A   18037.61128118  .00000064  00000-0  00000-0 0  9994
2 26605  55.0808 215.5340 0095296 248.3798 123.3364  2.00556227126324
1 26605U 00071A   18037.91587715  .00000066  00000-0  00000-0 0  9991
2 26605  55.0808 215.5219 0095308 248.3786 343.2637  2.00556223126322
1 26605U 00071A   18038.45737948  .00000069  00000-0  00000+0 0  9998
2 26605  55.0808 215.5005 0095327 248.3768  14.2443  2.00556218126331
1 26605U 00071A   18039.41161941  .00000072  00000-0  00000+0 0  9993
2 26605  55.0806 215.4626 0095360 248.3732 343.2338  2.00556198126352
1 26605U 00071A   18039.94329878  .00000072  00000-0  00000-0 0  9997
2 26605  55.0806 215.4415 0095377 248.3718   7.1215  2.00556189126361
1 26605U 00071A   18040.57060444  .00000070  00000-0  00000+0 0  9996
2 26605  55.0805 215.4166 0095394 248.3695 100.0548  2.00556173126372
1 26605U 00071A   18040.62162222  .00000070  00000-0  00000-0 0  9990
2 26605  55.0805 215.4146 0095396 248.3687 136.8917  2.00556170126388
1 26605U 00071A   18040.88530553  .00000069  00000-0  00000-0 0  9992
2 26605  55.0804 215.4041 0095407 248.3680 327.2786  2.00556164126380
1 26605U 00071A   18041.43163459  .00000066  00000-0  00000+0 0  9997
2 26605  55.0804 215.3824 0095421 248.3665   1.7437  2.00556148126386
1 26605U 00071A   18041.59591196  .00000065  00000-0  00000-0 0  9997
2 26605  55.0804 215.3759 0095422 248.3651 120.3576  2.00556142126408
1 26605U 00071A   18041.89834692  .00000063  00000-0  00000-0 0  9999
2 26605  55.0803 215.3639 0095435 248.3637 338.7248  2.00556134126404
1 26605U 00071A   18042.52312571  .00000058  00000-0  00000+0 0  9990
2 26605  55.0803 215.3391 0095450 248.3603  69.8345  2.00556113126417
1 26605U 00071A   18042.91265812  .00000055  00000-0  00000-0 0  9996
2 26605  55.0802 215.3237 0095463 248.3577 351.0896  2.00556101126424
1 26605U 00071A   18043.55104578  .00000051  00000-0  00000+0 0  9993
2 26605  55.0802 215.2983 0095479 248.3534  92.0261  2.00556076126431
1 26605U 00071A   18043.62146223  .00000050  00000-0  00000-0 0  9994
2 26605  55.0801 215.2956 0095481 248.3519 142.8701  2.00556074126448
1 26605U 00071A   18044.25726590  .00000047  00000-0  00000+0 0  9990
2 26605  55.0801 215.2703 0095505 248.3466 241.9416  2.00556045126448
1 26605U 00071A   18044.62083451  .00000045  00000-0  00000-0 0  9992
2 26605  55.0800 215.2559 0095514 248.3452 144.4489  2.00556034126468
1 26605U 00071A   18045.54101874  .00000042  00000-0  00000+0 0  9990
2 26605  55.0800 215.2194 0095551 248.3406  88.8498  2.00555993126478
1 26605U 00071A   18045.61138595  .00000042  00000-0  00000-0 0  9999
2 26605  55.0799 215.2167 0095553 248.3392 139.6581  2.00555990126487
1 26605U 00071A   18045.88290965  .00000041  00000-0  00000-0 0  9997
2 26605  55.0799 215.2059 0095568 248.3386 335.7055  2.00555977126486
1 26605U 00071A   18046.50008418  .00000042  00000-0  00000+0 0  9997
2 26605  55.0798 215.1814 0095590 248.3363  61.3234  2.00555950126496
1 26605U 00071A   18046.90090772  .00000042  00000-0  00000-0 0  9996
2 26605  55.0798 215.1655 0095608 248.3345 350.7298  2.00555931126505
1 26605U 00071A   18047.54225448  .00000044  00000-0  00000+0 0  9998
2 26605  55.0797 215.1401 0095632 248.3316  93.8011  2.00555902126515
1 26605U 00071A   18047.90889160  .00000046  00000-0  00000-0 0  9998
2 26605  55.0797 215.1256 0095649 248.3310 358.5228  2.00555885126527
1 26605U 00071A   18048.08268936  .00000047  00000-0  00000+0 0  9990
2 26605  55.0796 215.1187 0095654 248.3292 124.0111  2.00555875126520
1 26605U 00071A   18049.39439375  .00000055  00000-0  00000+0 0  9991
2 26605  55.0795 215.0667 0095705 248.3267 351.0966  2.00555811126542
1 26605U 00071A   18049.57007243  .00000056  00000-0  00000-0 0  9998
2 26605  55.0794 215.0597 0095710 248.3247 117.9430  2.00555803126565
1 26605U 00071A   18049.93955288  .00000059  00000-0  00000-0 0  9992
2 26605  55.0794 215.0450 0095723 248.3251  24.7165  2.00555787126563
1 26605U 00071A   18050.61032885  .00000064  00000-0  00000+0 0  9993
2 26605  55.0793 215.0184 0095744 248.3215 149.0370  2.00555755126574
1 26605U 00071A   18050.88048845  .00000066  00000-0  00000-0 0  9998
2 26605  55.0793 215.0077 0095755 248.3225 344.0978  2.00555744126588
1 26605U 00071A   18051.49358781  .00000070  00000-0  00000+0 0  9993
2 26605  55.0792 214.9834 0095774 248.3198  66.7732  2.00555713126599
1 26605U 00071A   18051.89557047  .00000072  00000-0  00000-0 0  9996
2 26605  55.0791 214.9675 0095790 248.3194 357.0149  2.00555694126603
1 26605U 00071A   18052.40404321  .00000074  00000-0  00000+0 0  9991
2 26605  55.0791 214.9473 0095807 248.3179   4.1461  2.00555670126613
1 26605U 00071A   18052.53682130  .00000075  00000-0  00000-0 0  9993
2 26605  55.0790 214.9420 0095812 248.3160 100.0170  2.00555664126616
1 26605U 00071A   18053.49197476  .00000075  00000-0  00000+0 0  9992
2 26605  55.0789 214.9041 0095848 248.3138  69.6631  2.00555623126636
1 26605U 00071A   18053.55353486  .00000075  00000-0  00000-0 0  9995
2 26605  55.0789 214.9017 0095852 248.3129 114.1119  2.00555621126640
1 26605U 00071A   18053.92112157  .00000074  00000-0  00000-0 0  9993
2 26605  55.0788 214.8871 0095866 248.3136  19.5177  2.00555605126643
1 26605U 00071A   18054.51970528  .00000070  00000-0  00000+0 0  9998
2 26605  55.0787 214.8634 0095893 248.3111  91.7121  2.00555585126651
1 26605U 00071A   18054.56958222  .00000070  00000-0  00000-0 0  9991
2 26605  55.0787 214.8614 0095896 248.3107 127.7249  2.00555583126667
1 26605U 00071A   18054.86723472  .00000067  00000-0  00000-0 0  9997
2 26605  55.0787 214.8496 0095909 248.3124 342.6355  2.00555572126663
1 26605U 00071A   18054.99923852  .00000066  00000-0  00000-0 0  9994
2 26605  55.0786 214.8443 0095913 248.3107  77.9471  2.00555567126661
1 26605U 00071A   18055.52753481  .00000060  00000-0  00000+0 0  9996
2 26605  55.0785 214.8234 0095936 248.3097  99.3906  2.00555546126670
1 26605U 00071A   18055.94955100  .00000055  00000-0  00000-0 0  9999
2 26605  55.0785 214.8066 0095954 248.3104  44.0958  2.00555536126686
1 26605U 00071A   18056.48024559  .00000047  00000-0  00000+0 0  9994
2 26605  55.0784 214.7856 0095978 248.3097  67.2707  2.00555517126697
1 26605U 00071A   18056.90101264  .00000040  00000-0  00000-0 0  9994
2 26605  55.0783 214.7689 0095996 248.3107  11.0735  2.00555506126700
1 26605U 00071A   18057.28215157  .00000034  00000-0  00000+0 0  9995
2 26605  55.0782 214.7538 0096015 248.3112 286.2643  2.00555491126708
1 26605U 00071A   18057.60283115  .00000029  00000-0  00000-0 0  9995
2 26605  55.0782 214.7410 0096028 248.3096 157.8043  2.00555485126724
1 26605U 00071A   18058.44850713  .00000015  00000-0  00000+0 0  9996
2 26605  55.0781 214.7075 0096060 248.3108  48.4013  2.00555467126733
1 26605U 00071A   18058.54921057  .00000014  00000-0  00000-0 0  9997
2 26605  55.0780 214.7035 0096065 248.3101 121.1123  2.00555463126744
1 26605U 00071A   18059.41150889  .00000004  00000-0  00000+0 0  9999
2 26605  55.0779 214.6693 0096098 248.3114  23.7106  2.00555445126750
1 26605U 00071A   18059.61097872  .00000002  00000-0  00000-0 0  9992
2 26605  55.0779 214.6614 0096108 248.3107 167.7334  2.00555442126767
1 26605U 00071A   18059.86499421 -.00000000  00000-0  00000-0 0  9994
2 26605  55.0778 214.6513 0096117 248.3118 351.1374  2.00555439126765
1 26605U 00071A   18060.40440101 -.00000003  00000-0  00000+0 0  9999
2 26605  55.0778 214.6299 0096137 248.3113  20.6023  2.00555430126774
1 26605U 00071A   18060.62926396 -.00000004  00000-0  00000-0 0  9990
2 26605  55.0777 214.6210 0096148 248.3105 182.9595  2.00555427126782
1 26605U 00071A   18061.49924295 -.00000004  00000-0  00000+0 0  9991
2 26605  55.0776 214.5865 0096180 248.3098  91.1054  2.00555419126796
1 26605U 00071A   18061.61768213 -.00000003  00000-0  00000-0 0  9991
2 26605  55.0776 214.5818 0096185 248.3095 176.6217  2.00555419126808
1 26605U 00071A   18061.71984146 -.00000003  00000-0  00000-0 0  9997
2 26605  55.0776 214.5778 0096189 248.3098 250.3828  2.00555417126806
1 26605U 00071A   18062.36884799  .00000000  00000-0  00000+0 0  9997
2 26605  55.0775 214.5520 0096215 248.3092 358.9812  2.00555410126805
1 26605U 00071A   18062.65235744  .00000002  00000-0  00000-0 0  9992
2 26605  55.0775 214.5408 0096226 248.3082 203.6826  2.00555404126827
